OBJECT_NAME,OBJECT_ID,EPOCH,MEAN_MOTION,ECCENTRICITY,INCLINATION,RA_OF_ASC_NODE,ARG_OF_PERICENTER,MEAN_ANOMALY,EPHEMERIS_TYPE,CLASSIFICATION_TYPE,NORAD_CAT_ID,ELEMENT_SET_NO,REV_AT_EPOCH,BSTAR,MEAN_MOTION_DOT,MEAN_MOTION_DDOT
SAUDISAT 5A,2018-102A,2026-06-14T20:56:52.041984,15.28027233,.0010879,97.3073,227.4981,136.1079,224.1027,0,U,43831,999,41532,.19544E-3,.5278E-4,0
SAUDISAT 5B,2018-102C,2026-06-14T21:24:33.807744,15.28285130,.0011539,97.3180,230.5825,138.4574,221.7544,0,U,43833,999,41544,.17597E-3,.4783E-4,0
GAOFEN-10R,2019-066A,2026-06-14T20:38:10.622688,14.83056262,.0006529,98.0496,119.4221,133.9619,226.2134,0,U,44622,999,36203,.13249E-3,.1024E-4,0
CARTOSAT-3,2019-081A,2026-06-14T20:27:04.012128,15.19265668,.0012951,97.4311,227.7562,156.2767,203.9067,0,U,44804,999,36311,.17604E-3,.3651E-4,0
GAOFEN-12 01,2019-082A,2026-06-14T20:23:00.797856,14.80456870,.0002342,97.8100,172.2905,73.1300,287.0169,0,U,44819,999,35374,.51023E-4,.339E-5,0
CSG-1,2019-092A,2026-06-14T19:45:50.111424,14.82151383,.000146,97.8888,349.4603,89.0050,271.1331,0,U,44873,999,35112,.53441E-4,.373E-5,0
NEMO-HD,2020-061F,2026-06-14T20:41:40.681824,15.44552446,.0002415,97.1925,227.8384,84.0336,276.1188,0,U,46277,999,32162,.21366E-3,.9837E-4,0
SENTINEL-6A,2020-086A,2026-06-14T15:57:47.193120,12.80929989,.0007945,66.0392,140.2907,270.2638,89.7467,0,U,46984,999,26000,-.16051E-4,-.65E-6,0
CAS500-1,2021-022A,2026-06-14T21:22:47.954784,15.20185790,.0003907,97.3910,61.1912,313.5863,46.5048,0,U,47932,999,29041,.25518E-3,.5459E-4,0
GAOFEN-12 02,2021-026A,2026-06-14T20:38:34.621152,14.80294466,.0003553,97.9928,164.0501,231.4667,128.6226,0,U,48079,999,28141,.46289E-4,.3E-5,0
PLEIADES NEO 3,2021-034A,2026-06-14T21:20:53.765088,14.81668642,.0001352,97.8936,240.6892,86.1651,273.9717,0,U,48268,999,27731,.1134E-3,.84E-5,0
PLEIADES NEO 4,2021-073E,2026-06-14T14:03:16.151904,14.81688074,.0001404,97.8942,240.3856,86.5960,273.5414,0,U,49070,999,26098,.23497E-3,.1798E-4,0
LANDSAT 9,2021-088A,2026-06-14T19:02:00.728736,14.57095482,.0001423,98.2281,235.9994,85.3704,274.7656,0,U,49260,999,25065,.73267E-4,.285E-5,0
CSG-2,2022-008A,2026-06-14T20:34:25.495392,14.82154278,.0001423,97.8880,349.4888,85.7552,274.3824,0,U,51444,999,23624,.42054E-4,.283E-5,0
GAOFEN-12 03,2022-069A,2026-06-14T19:43:41.950848,14.80030034,.0001952,97.8292,53.7524,104.9921,255.1507,0,U,52912,999,21426,.56531E-4,.377E-5,0
SWOT,2022-173A,2026-06-14T18:33:21.947616,14.00169346,.0000245,77.6108,38.5691,93.5081,266.6099,0,U,54754,999,17881,.36357E-4,.51E-6,0
GAOFEN-12 04,2023-123A,2026-06-14T20:08:09.941280,14.80224721,.0001787,97.9126,83.8904,84.5010,275.6406,0,U,57654,999,15228,.12154E-3,.872E-5,0
PARS 1,2024-039Q,2026-06-14T20:30:27.790848,15.45682651,.0011383,97.4817,146.7007,118.6648,241.5747,0,U,59065,999,12828,.2125E-3,.10186E-3,0
RESURS-P 4,2024-061A,2026-06-14T20:19:10.597152,15.32119422,.0001992,97.2754,113.7862,128.9298,231.2122,0,U,59371,999,12340,.95823E-4,.2895E-4,0
LEGION 1,2024-081A,2026-06-14T18:51:40.452768,15.16652530,.0009758,97.5022,243.6681,25.9671,334.2050,0,U,59625,999,11717,.17608E-3,.3381E-4,0
LEGION 2,2024-081B,2026-06-14T19:34:47.866656,15.16632508,.0010988,97.5023,243.7954,352.4092,7.6973,0,U,59626,999,11718,.1905E-3,.3662E-4,0
ALOS-4 (DAICHI-4),2024-123A,2026-06-14T20:36:57.409920,14.79472470,.000158,97.9245,263.0654,97.8726,262.2665,0,U,60182,999,10553,.18553E-3,.1334E-4,0
LEGION 3,2024-146A,2026-06-14T19:47:32.683776,15.16022753,.0007377,45.0024,43.2255,156.4537,203.6681,0,U,60452,999,10166,.17071E-3,.3074E-4,0
LEGION 4,2024-146B,2026-06-14T19:51:58.118400,15.16014080,.0013968,44.9997,135.1189,296.0219,63.9221,0,U,60453,999,10051,.18382E-3,.3334E-4,0
SENTINEL-2C,2024-157A,2026-06-14T19:04:41.335104,14.30817191,.0001059,98.5692,240.6107,80.5929,279.5373,0,U,60989,999,9264,.51057E-4,.9E-6,0
IONOSFERA-M 1,2024-199A,2026-06-14T19:15:54.150048,14.22753870,.0001886,98.7176,39.0000,113.5792,246.5584,0,U,61735,999,12736,.44492E-4,.56E-6,0
IONOSFERA-M 2,2024-199B,2026-06-14T20:05:17.752128,14.22757130,.0001144,98.7175,38.9447,41.1487,318.9777,0,U,61736,999,13049,.42471E-4,.51E-6,0
PRSC-EO1,2025-012A,2026-06-14T21:12:55.656864,15.17744556,.0004308,97.4231,238.3888,261.2417,98.8329,0,U,62725,999,7784,.345E-3,.69E-4,0
BIOMASS,2025-090A,2026-06-14T18:48:12.894048,14.67534006,.0001399,98.0737,353.1352,92.3432,267.7932,0,U,63772,999,6033,.16433E-3,.884E-5,0
GOSAT-GW (IBUKI GW),2025-141A,2026-06-14T20:55:38.958816,14.67553244,.0001431,98.0569,103.2266,82.9880,277.1488,0,U,64694,999,5150,.20353E-3,.1107E-4,0
IONOSFERA-M 3,2025-155A,2026-06-14T20:27:44.888832,14.21486075,.0000864,98.6023,127.8164,161.4817,198.6392,0,U,64876,999,4607,.32979E-4,.29E-6,0
