SAUDISAT 5A             
1 43831U 18102A   26165.87282456  .00005278  00000+0  19544-3 0  9990
2 43831  97.3073 227.4981 0010879 136.1079 224.1027 15.28027233415321
SAUDISAT 5B             
1 43833U 18102C   26165.89205796  .00004783  00000+0  17597-3 0  9992
2 43833  97.3180 230.5825 0011539 138.4574 221.7544 15.28285130415445
GAOFEN-10R              
1 44622U 19066A   26165.85984517  .00001024  00000+0  13249-3 0  9995
2 44622  98.0496 119.4221 0006529 133.9619 226.2134 14.83056262362031
CARTOSAT-3              
1 44804U 19081A   26165.85212977  .00003651  00000+0  17604-3 0  9995
2 44804  97.4311 227.7562 0012951 156.2767 203.9067 15.19265668363110
GAOFEN-12 01            
1 44819U 19082A   26165.84931479  .00000339  00000+0  51023-4 0  9990
2 44819  97.8100 172.2905 0002342  73.1300 287.0169 14.80456870353742
CSG-1                   
1 44873U 19092A   26165.82349666  .00000373  00000+0  53441-4 0  9994
2 44873  97.8888 349.4603 0001460  89.0050 271.1331 14.82151383351124
NEMO-HD                 
1 46277U 20061F   26165.86227641  .00009837  00000+0  21366-3 0  9998
2 46277  97.1925 227.8384 0002415  84.0336 276.1188 15.44552446321628
SENTINEL-6A             
1 46984U 20086A   26165.66512955 -.00000065  00000+0 -16051-4 0  9995
2 46984  66.0392 140.2907 0007945 270.2638  89.7467 12.80929989260001
CAS500-1                
1 47932U 21022A   26165.89083281  .00005459  00000+0  25518-3 0  9997
2 47932  97.3910  61.1912 0003907 313.5863  46.5048 15.20185790290415
GAOFEN-12 02            
1 48079U 21026A   26165.86012293  .00000300  00000+0  46289-4 0  9995
2 48079  97.9928 164.0501 0003553 231.4667 128.6226 14.80294466281413
PLEIADES NEO 3          
1 48268U 21034A   26165.88951117  .00000840  00000+0  11340-3 0  9991
2 48268  97.8936 240.6892 0001352  86.1651 273.9717 14.81668642277313
PLEIADES NEO 4          
1 49070U 21073E   26165.58560361  .00001798  00000+0  23497-3 0  9999
2 49070  97.8942 240.3856 0001404  86.5960 273.5414 14.81688074260980
LANDSAT 9               
1 49260U 21088A   26165.79306399  .00000285  00000+0  73267-4 0  9999
2 49260  98.2281 235.9994 0001423  85.3704 274.7656 14.57095482250651
CSG-2                   
1 51444U 22008A   26165.85723953  .00000283  00000+0  42054-4 0  9993
2 51444  97.8880 349.4888 0001423  85.7552 274.3824 14.82154278236245
GAOFEN-12 03            
1 52912U 22069A   26165.82201332  .00000377  00000+0  56531-4 0  9999
2 52912  97.8292  53.7524 0001952 104.9921 255.1507 14.80030034214260
SWOT                    
1 54754U 22173A   26165.77317069  .00000051  00000+0  36357-4 0  9993
2 54754  77.6108  38.5691 0000245  93.5081 266.6099 14.00169346178812
GAOFEN-12 04            
1 57654U 23123A   26165.83900395  .00000872  00000+0  12154-3 0  9997
2 57654  97.9126  83.8904 0001787  84.5010 275.6406 14.80224721152285
PARS 1                  
1 59065U 24039Q   26165.85448832  .00010186  00000+0  21250-3 0  9993
2 59065  97.4817 146.7007 0011383 118.6648 241.5747 15.45682651128282
RESURS-P 4              
1 59371U 24061A   26165.84665043  .00002895  00000+0  95823-4 0  9998
2 59371  97.2754 113.7862 0001992 128.9298 231.2122 15.32119422123402
LEGION 1                
1 59625U 24081A   26165.78588487  .00003381  00000+0  17608-3 0  9996
2 59625  97.5022 243.6681 0009758  25.9671 334.2050 15.16652530117171
LEGION 2                
1 59626U 24081B   26165.81583179  .00003662  00000+0  19050-3 0  9999
2 59626  97.5023 243.7954 0010988 352.4092   7.6973 15.16632508117188
ALOS-4 (DAICHI-4)       
1 60182U 24123A   26165.85899780  .00001334  00000+0  18553-3 0  9998
2 60182  97.9245 263.0654 0001580  97.8726 262.2665 14.79472470105532
LEGION 3                
1 60452U 24146A   26165.82468384  .00003074  00000+0  17071-3 0  9999
2 60452  45.0024  43.2255 0007377 156.4537 203.6681 15.16022753101662
LEGION 4                
1 60453U 24146B   26165.82775600  .00003334  00000+0  18382-3 0  9997
2 60453  44.9997 135.1189 0013968 296.0219  63.9221 15.16014080100512
SENTINEL-2C             
1 60989U 24157A   26165.79492286  .00000090  00000+0  51057-4 0  9998
2 60989  98.5692 240.6107 0001059  80.5929 279.5373 14.30817191 92643
IONOSFERA-M 1           
1 61735U 24199A   26165.80271007  .00000056  00000+0  44492-4 0  9999
2 61735  98.7176  39.0000 0001886 113.5792 246.5584 14.22753870127367
IONOSFERA-M 2           
1 61736U 24199B   26165.83701102  .00000051  00000+0  42471-4 0  9997
2 61736  98.7175  38.9447 0001144  41.1487 318.9777 14.22757130130493
PRSC-EO1                
1 62725U 25012A   26165.88397751  .00006900  00000+0  34500-3 0  9999
2 62725  97.4231 238.3888 0004308 261.2417  98.8329 15.17744556 77848
BIOMASS                 
1 63772U 25090A   26165.78348257  .00000884  00000+0  16433-3 0  9994
2 63772  98.0737 353.1352 0001399  92.3432 267.7932 14.67534006 60332
GOSAT-GW (IBUKI GW)     
1 64694U 25141A   26165.87197869  .00001107  00000+0  20353-3 0  9991
2 64694  98.0569 103.2266 0001431  82.9880 277.1488 14.67553244 51501
IONOSFERA-M 3           
1 64876U 25155A   26165.85260288  .00000029  00000+0  32979-4 0  9992
2 64876  98.6023 127.8164 0000864 161.4817 198.6392 14.21486075 46079
